{"type": "FeatureCollection", "features": [ {"type": "Feature", "properties": {"norad_id": 44622, "name": "GAOFEN-10R", "group": "resource", "lat": 35.49659695146833, "lon": -67.27065015695734, "alt_km": 612.7801052047034, "timestamp": "2025-12-16T23:36:35.842683+00:00", "meta": {"OBJECT_NAME": "GAOFEN-10R", "OBJECT_ID": "2019-066A", "EPOCH": "2025-12-16T08:52:22.709856", "MEAN_MOTION": 14.8280489, "ECCENTRICITY": 0.00076455, "INCLINATION": 98.0282, "RA_OF_ASC_NODE": 297.8901, "ARG_OF_PERICENTER": 31.4355, "MEAN_ANOMALY": 328.7314, "EPHEMERIS_TYPE": 0, "CLASSIFICATION_TYPE": "U", "NORAD_CAT_ID": 44622, "ELEMENT_SET_NO": 999, "REV_AT_EPOCH": 33528, "BSTAR": 0.00019518851, "MEAN_MOTION_DOT": 1.525e-05, "MEAN_MOTION_DDOT": 0}, "tle": {"line1": "1 44622U 19066A   25350.36970729  .00001525  00000+0  19519-3 0  9998", "line2": "2 44622  98.0282 297.8901 0007645  31.4355 328.7314 14.82804890335281"}}, "geometry": {"type": "Point", "coordinates": [-67.27065015695734, 35.49659695146833]}}, {"type": "Feature", "properties": {"norad_id": 44804, "name": "CARTOSAT-3", "group": "resource", "lat": 33.52585123589934, "lon": 45.53451523136077, "alt_km": 498.4320381629241, "timestamp": "2025-12-16T23:36:35.842693+00:00", "meta": {"OBJECT_NAME": "CARTOSAT-3", "OBJECT_ID": "2019-081A", "EPOCH": "2025-12-16T07:39:13.264992", "MEAN_MOTION": 15.19183938, "ECCENTRICITY": 0.00139923, "INCLINATION": 97.4584, "RA_OF_ASC_NODE": 49.8574, "ARG_OF_PERICENTER": 71.886, "MEAN_ANOMALY": 288.3897, "EPHEMERIS_TYPE": 0, "CLASSIFICATION_TYPE": "U", "NORAD_CAT_ID": 44804, "ELEMENT_SET_NO": 999, "REV_AT_EPOCH": 33570, "BSTAR": 0.00019948824, "MEAN_MOTION_DOT": 4.138e-05, "MEAN_MOTION_DDOT": 0}, "tle": {"line1": "1 44804U 19081A   25350.31890353  .00004138  00000+0  19949-3 0  9996", "line2": "2 44804  97.4584  49.8574 0013992  71.8860 288.3897 15.19183938335701"}}, "geometry": {"type": "Point", "coordinates": [45.53451523136077, 33.52585123589934]}}, {"type": "Feature", "properties": {"norad_id": 44819, "name": "GAOFEN-12 01", "group": "resource", "lat": -82.17704790173373, "lon": 85.04028038875877, "alt_km": 634.0447220757633, "timestamp": "2025-12-16T23:36:35.842703+00:00", "meta": {"OBJECT_NAME": "GAOFEN-12 01", "OBJECT_ID": "2019-082A", "EPOCH": "2025-12-16T07:47:44.988000", "MEAN_MOTION": 14.80661725, "ECCENTRICITY": 0.00015234, "INCLINATION": 97.8125, "RA_OF_ASC_NODE": 356.5118, "ARG_OF_PERICENTER": 213.3927, "MEAN_ANOMALY": 146.719, "EPHEMERIS_TYPE": 0, "CLASSIFICATION_TYPE": "U", "NORAD_CAT_ID": 44819, "ELEMENT_SET_NO": 999, "REV_AT_EPOCH": 32703, "BSTAR": 7.1804966e-05, "MEAN_MOTION_DOT": 5.01e-06, "MEAN_MOTION_DDOT": 0}, "tle": {"line1": "1 44819U 19082A   25350.32482625  .00000501  00000+0  71805-4 0  9993", "line2": "2 44819  97.8125 356.5118 0001523 213.3927 146.7190 14.80661725327030"}}, "geometry": {"type": "Point", "coordinates": [85.04028038875877, -82.17704790173373]}}, {"type": "Feature", "properties": {"norad_id": 44873, "name": "CSG-1", "group": "resource", "lat": 43.48004812370327, "lon": 164.69591086854695, "alt_km": 618.1618707771331, "timestamp": "2025-12-16T23:36:35.842714+00:00", "meta": {"OBJECT_NAME": "CSG-1", "OBJECT_ID": "2019-092A", "EPOCH": "2025-12-16T10:27:00.089280", "MEAN_MOTION": 14.82145521, "ECCENTRICITY": 0.0001487, "INCLINATION": 97.8809, "RA_OF_ASC_NODE": 171.7039, "ARG_OF_PERICENTER": 86.8831, "MEAN_ANOMALY": 273.2552, "EPHEMERIS_TYPE": 0, "CLASSIFICATION_TYPE": "U", "NORAD_CAT_ID": 44873, "ELEMENT_SET_NO": 999, "REV_AT_EPOCH": 32440, "BSTAR": 9.6665e-05, "MEAN_MOTION_DOT": 7.17e-06, "MEAN_MOTION_DDOT": 0}, "tle": {"line1": "1 44873U 19092A   25350.43541770  .00000717  00000+0  96665-4 0  9993", "line2": "2 44873  97.8809 171.7039 0001487  86.8831 273.2552 14.82145521324403"}}, "geometry": {"type": "Point", "coordinates": [164.69591086854695, 43.48004812370327]}}, {"type": "Feature", "properties": {"norad_id": 46277, "name": "NEMO-HD", "group": "resource", "lat": 10.572238365143532, "lon": 48.671872745411164, "alt_km": 445.6631559973257, "timestamp": "2025-12-16T23:36:35.842724+00:00", "meta": {"OBJECT_NAME": "NEMO-HD", "OBJECT_ID": "2020-061F", "EPOCH": "2025-12-16T07:58:24.183840", "MEAN_MOTION": 15.40404762, "ECCENTRICITY": 0.00016594, "INCLINATION": 97.2215, "RA_OF_ASC_NODE": 49.3846, "ARG_OF_PERICENTER": 53.8345, "MEAN_ANOMALY": 306.3055, "EPHEMERIS_TYPE": 0, "CLASSIFICATION_TYPE": "U", "NORAD_CAT_ID": 46277, "ELEMENT_SET_NO": 999, "REV_AT_EPOCH": 29379, "BSTAR": 0.00021113936, "MEAN_MOTION_DOT": 8.455e-05, "MEAN_MOTION_DDOT": 0}, "tle": {"line1": "1 46277U 20061F   25350.33222435  .00008455  00000+0  21114-3 0  9997", "line2": "2 46277  97.2215  49.3846 0001659  53.8345 306.3055 15.40404762293792"}}, "geometry": {"type": "Point", "coordinates": [48.671872745411164, 10.572238365143532]}}, {"type": "Feature", "properties": {"norad_id": 46984, "name": "SENTINEL-6A", "group": "resource", "lat": -42.63669158011578, "lon": -2.338735167562783, "alt_km": 1338.9150757121315, "timestamp": "2025-12-16T23:36:35.842734+00:00", "meta": {"OBJECT_NAME": "SENTINEL-6A", "OBJECT_ID": "2020-086A", "EPOCH": "2025-12-16T03:41:09.449376", "MEAN_MOTION": 12.80930741, "ECCENTRICITY": 0.00077163, "INCLINATION": 66.039, "RA_OF_ASC_NODE": 155.2173, "ARG_OF_PERICENTER": 269.2946, "MEAN_ANOMALY": 90.7185, "EPHEMERIS_TYPE": 0, "CLASSIFICATION_TYPE": "U", "NORAD_CAT_ID": 46984, "ELEMENT_SET_NO": 999, "REV_AT_EPOCH": 23688, "BSTAR": 9.7652473e-05, "MEAN_MOTION_DOT": -3.9e-07, "MEAN_MOTION_DDOT": 0}, "tle": {"line1": "1 46984U 20086A   25350.15358159 -.00000039  00000+0  97652-4 0  9994", "line2": "2 46984  66.0390 155.2173 0007716 269.2946  90.7185 12.80930741236882"}}, "geometry": {"type": "Point", "coordinates": [-2.338735167562783, -42.63669158011578]}}, {"type": "Feature", "properties": {"norad_id": 48079, "name": "GAOFEN-12 02", "group": "resource", "lat": -75.72762036190788, "lon": 18.461108687090427, "alt_km": 636.9829751429443, "timestamp": "2025-12-16T23:36:35.842744+00:00", "meta": {"OBJECT_NAME": "GAOFEN-12 02", "OBJECT_ID": "2021-026A", "EPOCH": "2025-12-16T06:07:19.374240", "MEAN_MOTION": 14.80679301, "ECCENTRICITY": 0.00035941, "INCLINATION": 97.9852, "RA_OF_ASC_NODE": 344.2445, "ARG_OF_PERICENTER": 94.0705, "MEAN_ANOMALY": 266.0918, "EPHEMERIS_TYPE": 0, "CLASSIFICATION_TYPE": "U", "NORAD_CAT_ID": 48079, "ELEMENT_SET_NO": 999, "REV_AT_EPOCH": 25469, "BSTAR": 6.8721214e-05, "MEAN_MOTION_DOT": 4.75e-06, "MEAN_MOTION_DDOT": 0}, "tle": {"line1": "1 48079U 21026A   25350.25508535  .00000475  00000+0  68721-4 0  9990", "line2": "2 48079  97.9852 344.2445 0003594  94.0705 266.0918 14.80679301254699"}}, "geometry": {"type": "Point", "coordinates": [18.461108687090427, -75.72762036190788]}}, {"type": "Feature", "properties": {"norad_id": 48268, "name": "PLEIADES NEO 3", "group": "resource", "lat": 3.8405873624978106, "lon": 62.8300789795116, "alt_km": 626.5732153832532, "timestamp": "2025-12-16T23:36:35.842754+00:00", "meta": {"OBJECT_NAME": "PLEIADES NEO 3", "OBJECT_ID": "2021-034A", "EPOCH": "2025-12-16T12:14:49.336800", "MEAN_MOTION": 14.81671053, "ECCENTRICITY": 0.000131, "INCLINATION": 97.8948, "RA_OF_ASC_NODE": 62.8972, "ARG_OF_PERICENTER": 96.3461, "MEAN_ANOMALY": 263.7901, "EPHEMERIS_TYPE": 0, "CLASSIFICATION_TYPE": "U", "NORAD_CAT_ID": 48268, "ELEMENT_SET_NO": 999, "REV_AT_EPOCH": 25060, "BSTAR": 0.00011659, "MEAN_MOTION_DOT": 8.66e-06, "MEAN_MOTION_DDOT": 0}, "tle": {"line1": "1 48268U 21034A   25350.51029325  .00000866  00000+0  11659-3 0  9994", "line2": "2 48268  97.8948  62.8972 0001310  96.3461 263.7901 14.81671053250600"}}, "geometry": {"type": "Point", "coordinates": [62.8300789795116, 3.8405873624978106]}}, {"type": "Feature", "properties": {"norad_id": 49070, "name": "PLEIADES NEO 4", "group": "resource", "lat": -4.167111043396296, "lon": -117.21963924830163, "alt_km": 627.5453213552728, "timestamp": "2025-12-16T23:36:35.842765+00:00", "meta": {"OBJECT_NAME": "PLEIADES NEO 4", "OBJECT_ID": "2021-073E", "EPOCH": "2025-12-16T19:32:25.031904", "MEAN_MOTION": 14.81671846, "ECCENTRICITY": 0.0001248, "INCLINATION": 97.8946, "RA_OF_ASC_NODE": 63.1925, "ARG_OF_PERICENTER": 98.3982, "MEAN_ANOMALY": 261.7372, "EPHEMERIS_TYPE": 0, "CLASSIFICATION_TYPE": "U", "NORAD_CAT_ID": 49070, "ELEMENT_SET_NO": 999, "REV_AT_EPOCH": 23436, "BSTAR": 1.7376e-05, "MEAN_MOTION_DOT": 8.5e-07, "MEAN_MOTION_DDOT": 0}, "tle": {"line1": "1 49070U 21073E   25350.81417861  .00000085  00000+0  17376-4 0  9994", "line2": "2 49070  97.8946  63.1925 0001248  98.3982 261.7372 14.81671846234367"}}, "geometry": {"type": "Point", "coordinates": [-117.21963924830163, -4.167111043396296]}}, {"type": "Feature", "properties": {"norad_id": 49260, "name": "LANDSAT 9", "group": "resource", "lat": -6.040309745223812, "lon": -121.84207636121076, "alt_km": 706.3988211299993, "timestamp": "2025-12-16T23:36:35.842775+00:00", "meta": {"OBJECT_NAME": "LANDSAT 9", "OBJECT_ID": "2021-088A", "EPOCH": "2025-12-16T06:16:42.225312", "MEAN_MOTION": 14.57101655, "ECCENTRICITY": 0.00011347, "INCLINATION": 98.2092, "RA_OF_ASC_NODE": 58.3216, "ARG_OF_PERICENTER": 89.6816, "MEAN_ANOMALY": 270.4513, "EPHEMERIS_TYPE": 0, "CLASSIFICATION_TYPE": "U", "NORAD_CAT_ID": 49260, "ELEMENT_SET_NO": 999, "REV_AT_EPOCH": 22436, "BSTAR": 0.00010313817, "MEAN_MOTION_DOT": 4.19e-06, "MEAN_MOTION_DDOT": 0}, "tle": {"line1": "1 49260U 21088A   25350.26159983  .00000419  00000+0  10314-3 0  9993", "line2": "2 49260  98.2092  58.3216 0001134  89.6816 270.4513 14.57101655224369"}}, "geometry": {"type": "Point", "coordinates": [-121.84207636121076, -6.040309745223812]}}]}